[
    {
        "Altitude(m)": 717195.4027918986,
        "Argument of Periapsis(deg)": 0.005695060593313534,
        "Eccentricity": 0.0,
        "Inclination(deg)": 45.0,
        "Latitude(deg)": -43.49313567825556,
        "Longitude(deg)": 103.95433701513586,
        "Mean Anomaly(deg)": -76.05159167625959,
        "RAAN(deg)": 274.9946240292709,
        "Satellite Name": "Constellation 1 1227",
        "Satellite Number": 1227,
        "Semi-Major Axis(m)": 7083131.272910544,
        "Time(s)": 95
    },
    {
        "Altitude(m)": 717189.5139471928,
        "Argument of Periapsis(deg)": 0.00575500859955894,
        "Eccentricity": 0.0,
        "Inclination(deg)": 45.0,
        "Latitude(deg)": -43.47891028651249,
        "Longitude(deg)": 104.0311576905062,
        "Mean Anomaly(deg)": -75.99089053600976,
        "RAAN(deg)": 274.9945674401053,
        "Satellite Name": "Constellation 1 1227",
        "Satellite Number": 1227,
        "Semi-Major Axis(m)": 7083131.272910544,
        "Time(s)": 96
    },
    {
        "Altitude(m)": 717183.6012456695,
        "Argument of Periapsis(deg)": 0.005814956605804345,
        "Eccentricity": 0.0,
        "Inclination(deg)": 45.0,
        "Latitude(deg)": -43.46462761908393,
        "Longitude(deg)": 104.10794058215836,
        "Mean Anomaly(deg)": -75.9301893957598,
        "RAAN(deg)": 274.9945108509398,
        "Satellite Name": "Constellation 1 1227",
        "Satellite Number": 1227,
        "Semi-Major Axis(m)": 7083131.272910544,
        "Time(s)": 97
    },
    {
        "Altitude(m)": 717177.6647090836,
        "Argument of Periapsis(deg)": 0.00587490461204975,
        "Eccentricity": 0.0,
        "Inclination(deg)": 45.0,
        "Latitude(deg)": -43.45028773076118,
        "Longitude(deg)": 104.18468540659394,
        "Mean Anomaly(deg)": -75.86948825550986,
        "RAAN(deg)": 274.9944542617742,
        "Satellite Name": "Constellation 1 1227",
        "Satellite Number": 1227,
        "Semi-Major Axis(m)": 7083131.272910544,
        "Time(s)": 98
    },
    {
        "Altitude(m)": 717171.7043592556,
        "Argument of Periapsis(deg)": 0.005934852618295156,
        "Eccentricity": 0.0,
        "Inclination(deg)": 45.0,
        "Latitude(deg)": -43.435890676489294,
        "Longitude(deg)": 104.26139204895719,
        "Mean Anomaly(deg)": -75.80878711526005,
        "RAAN(deg)": 274.9943976726086,
        "Satellite Name": "Constellation 1 1227",
        "Satellite Number": 1227,
        "Semi-Major Axis(m)": 7083131.272910544,
        "Time(s)": 99
    },
    {
        "Altitude(m)": 717165.7202181106,
        "Argument of Periapsis(deg)": 0.005994800624540561,
        "Eccentricity": 0.0,
        "Inclination(deg)": 45.0,
        "Latitude(deg)": -43.4214365113658,
        "Longitude(deg)": 104.33806039493994,
        "Mean Anomaly(deg)": -75.74808597501008,
        "RAAN(deg)": 274.99434108344303,
        "Satellite Name": "Constellation 1 1227",
        "Satellite Number": 1227,
        "Semi-Major Axis(m)": 7083131.272910544,
        "Time(s)": 100
    },
    {
        "Altitude(m)": 717159.7123076502,
        "Argument of Periapsis(deg)": 0.006054748630785968,
        "Eccentricity": 0.0,
        "Inclination(deg)": 45.0,
        "Latitude(deg)": -43.40692529064007,
        "Longitude(deg)": 104.41469033078052,
        "Mean Anomaly(deg)": -75.68738483476015,
        "RAAN(deg)": 274.99428449427745,
        "Satellite Name": "Constellation 1 1227",
        "Satellite Number": 1227,
        "Semi-Major Axis(m)": 7083131.272910544,
        "Time(s)": 101
    },
    {
        "Altitude(m)": 717153.6806499688,
        "Argument of Periapsis(deg)": 0.006114696637031373,
        "Eccentricity": 0.0,
        "Inclination(deg)": 45.0,
        "Latitude(deg)": -43.392357069712446,
        "Longitude(deg)": 104.49128174326508,
        "Mean Anomaly(deg)": -75.62668369451029,
        "RAAN(deg)": 274.9942279051119,
        "Satellite Name": "Constellation 1 1227",
        "Satellite Number": 1227,
        "Semi-Major Axis(m)": 7083131.272910544,
        "Time(s)": 102
    },
    {
        "Altitude(m)": 717147.6252672474,
        "Argument of Periapsis(deg)": 0.006174644643276778,
        "Eccentricity": 0.0,
        "Inclination(deg)": 45.0,
        "Latitude(deg)": -43.377731904133135,
        "Longitude(deg)": 104.56783451972866,
        "Mean Anomaly(deg)": -75.56598255426046,
        "RAAN(deg)": 274.99417131594635,
        "Satellite Name": "Constellation 1 1227",
        "Satellite Number": 1227,
        "Semi-Major Axis(m)": 7083131.272910544,
        "Time(s)": 103
    },
    {
        "Altitude(m)": 717141.5461817483,
        "Argument of Periapsis(deg)": 0.006234592649522184,
        "Eccentricity": 0.0,
        "Inclination(deg)": 45.0,
        "Latitude(deg)": -43.36304984960138,
        "Longitude(deg)": 104.64434837995837,
        "Mean Anomaly(deg)": -75.50528141401044,
        "RAAN(deg)": 274.99411472678077,
        "Satellite Name": "Constellation 1 1227",
        "Satellite Number": 1227,
        "Semi-Major Axis(m)": 7083131.272910544,
        "Time(s)": 104
    },
    {
        "Altitude(m)": 717135.4434158182,
        "Argument of Periapsis(deg)": 0.00629454065576759,
        "Eccentricity": 0.0,
        "Inclination(deg)": 45.0,
        "Latitude(deg)": -43.34831096196485,
        "Longitude(deg)": 104.72082354858063,
        "Mean Anomaly(deg)": -75.44458027376061,
        "RAAN(deg)": 274.9940581376152,
        "Satellite Name": "Constellation 1 1227",
        "Satellite Number": 1227,
        "Semi-Major Axis(m)": 7083131.272910544,
        "Time(s)": 105
    },
    {
        "Altitude(m)": 717129.316991902,
        "Argument of Periapsis(deg)": 0.006354488662012995,
        "Eccentricity": 0.0,
        "Inclination(deg)": 45.0,
        "Latitude(deg)": -43.33351529721821,
        "Longitude(deg)": 104.79725974648197,
        "Mean Anomaly(deg)": -75.38387913351075,
        "RAAN(deg)": 274.99400154844966,
        "Satellite Name": "Constellation 1 1227",
        "Satellite Number": 1227,
        "Semi-Major Axis(m)": 7083131.272910544,
        "Time(s)": 106
    },
    {
        "Altitude(m)": 717123.1669325188,
        "Argument of Periapsis(deg)": 0.006414436668258401,
        "Eccentricity": 0.0,
        "Inclination(deg)": 45.0,
        "Latitude(deg)": -43.318662911502614,
        "Longitude(deg)": 104.87365686319629,
        "Mean Anomaly(deg)": -75.3231779932608,
        "RAAN(deg)": 274.9939449592841,
        "Satellite Name": "Constellation 1 1227",
        "Satellite Number": 1227,
        "Semi-Major Axis(m)": 7083131.272910544,
        "Time(s)": 107
    },
    {
        "Altitude(m)": 717116.9932602848,
        "Argument of Periapsis(deg)": 0.0064743846745038075,
        "Eccentricity": 0.0,
        "Inclination(deg)": 45.0,
        "Latitude(deg)": -43.3037538611047,
        "Longitude(deg)": 104.95001478880815,
        "Mean Anomaly(deg)": -75.26247685301084,
        "RAAN(deg)": 274.9938883701185,
        "Satellite Name": "Constellation 1 1227",
        "Satellite Number": 1227,
        "Semi-Major Axis(m)": 7083131.272910544,
        "Time(s)": 108
    },
    {
        "Altitude(m)": 717110.7959978929,
        "Argument of Periapsis(deg)": 0.0065343326807492125,
        "Eccentricity": 0.0,
        "Inclination(deg)": 45.0,
        "Latitude(deg)": -43.28878820245569,
        "Longitude(deg)": 105.02633341395335,
        "Mean Anomaly(deg)": -75.20177571276098,
        "RAAN(deg)": 274.9938317809529,
        "Satellite Name": "Constellation 1 1227",
        "Satellite Number": 1227,
        "Semi-Major Axis(m)": 7083131.272910544,
        "Time(s)": 109
    },
    {
        "Altitude(m)": 717104.5751681251,
        "Argument of Periapsis(deg)": 0.0065942806869946176,
        "Eccentricity": 0.0,
        "Inclination(deg)": 45.0,
        "Latitude(deg)": -43.27376599213044,
        "Longitude(deg)": 105.10261262982011,
        "Mean Anomaly(deg)": -75.14107457251109,
        "RAAN(deg)": 274.99377519178734,
        "Satellite Name": "Constellation 1 1227",
        "Satellite Number": 1227,
        "Semi-Major Axis(m)": 7083131.272910544,
        "Time(s)": 110
    },
    {
        "Altitude(m)": 717098.3307938526,
        "Argument of Periapsis(deg)": 0.006654228693240024,
        "Eccentricity": 0.0,
        "Inclination(deg)": 45.0,
        "Latitude(deg)": -43.25868728684658,
        "Longitude(deg)": 105.1788521600519,
        "Mean Anomaly(deg)": -75.08037343226123,
        "RAAN(deg)": 274.9937186026218,
        "Satellite Name": "Constellation 1 1227",
        "Satellite Number": 1227,
        "Semi-Major Axis(m)": 7083131.272910544,
        "Time(s)": 111
    },
    {
        "Altitude(m)": 717092.0628980286,
        "Argument of Periapsis(deg)": 0.006714176699485429,
        "Eccentricity": 0.0,
        "Inclination(deg)": 45.0,
        "Latitude(deg)": -43.24355214346368,
        "Longitude(deg)": 105.25505223313529,
        "Mean Anomaly(deg)": -75.0196722920113,
        "RAAN(deg)": 274.99366201345623,
        "Satellite Name": "Constellation 1 1227",
        "Satellite Number": 1227,
        "Semi-Major Axis(m)": 7083131.272910544,
        "Time(s)": 112
    },
    {
        "Altitude(m)": 717085.7715036895,
        "Argument of Periapsis(deg)": 0.006774124705730835,
        "Eccentricity": 0.0,
        "Inclination(deg)": 45.0,
        "Latitude(deg)": -43.22836061898227,
        "Longitude(deg)": 105.33121257381949,
        "Mean Anomaly(deg)": -74.95897115176143,
        "RAAN(deg)": 274.99360542429065,
        "Satellite Name": "Constellation 1 1227",
        "Satellite Number": 1227,
        "Semi-Major Axis(m)": 7083131.272910544,
        "Time(s)": 113
    }
]